[{"OBJECT_NAME":"STARLINK-32102","OBJECT_ID":"2024-086T","EPOCH":"2026-03-09T00:51:02.773728","MEAN_MOTION":15.27593723,"ECCENTRICITY":9.547e-5,"INCLINATION":43.0039,"RA_OF_ASC_NODE":63.456,"ARG_OF_PERICENTER":211.18,"MEAN_ANOMALY":148.8995,"EPHEMERIS_TYPE":0,"CLASSIFICATION_TYPE":"U","NORAD_CAT_ID":59699,"ELEMENT_SET_NO":999,"REV_AT_EPOCH":10401,"BSTAR":0.0010690606,"MEAN_MOTION_DOT":0.00029285,"MEAN_MOTION_DDOT":0},{"OBJECT_NAME":"TRANSPORTER-1 OBJECT AA","OBJECT_ID":"2021-006AA","EPOCH":"2026-03-09T22:58:14.761920","MEAN_MOTION":15.29982294,"ECCENTRICITY":0.00086604,"INCLINATION":97.2381,"RA_OF_ASC_NODE":112.457,"ARG_OF_PERICENTER":185.709,"MEAN_ANOMALY":174.4054,"EPHEMERIS_TYPE":0,"CLASSIFICATION_TYPE":"U","NORAD_CAT_ID":47437,"ELEMENT_SET_NO":999,"REV_AT_EPOCH":28414,"BSTAR":0.0002197941,"MEAN_MOTION_DOT":6.312e-5,"MEAN_MOTION_DDOT":0}]
